NORAD_CAT_ID,OBJECT_NAME,OBJECT_TYPE,EPOCH,MEAN_MOTION,ECCENTRICITY,INCLINATION,RA_OF_ASC_NODE,ARG_OF_PERICENTER,MEAN_ANOMALY,BSTAR,MEAN_MOTION_DOT,MEAN_MOTION_DDOT,TLE_LINE0,TLE_LINE1,TLE_LINE2,SEMIMAJOR_AXIS,PERIOD,APOGEE,PERIGEE,DECAYED
54066.0,STARLINK-5151,PAYLOAD,2024-07-14 15:04:01,15.08847232,0.0001299,53.2165,171.2596,91.6906,268.4235,0.00011154,1.488e-05,0.0,0 STARLINK-5151,1 54066U 22136R   24196.62779230  .00001488  00000-0  11154-3 0  9999,2 54066  53.2165 171.2596 0001299  91.6906 268.4235 15.08847232 96283,6917.858,95.437,540.622,538.825,0.0
54066.0,STARLINK-5151,PAYLOAD,2024-07-15 05:22:30,15.08831566,0.0001508,53.2181,168.5881,104.3891,255.7268,-1.0627e-06,-3.05e-06,0.0,0 STARLINK-5151,1 54066U 22136R   24197.22396791 -.00000305  00000-0 -10627-5 0  9998,2 54066  53.2181 168.5881 0001508 104.3891 255.7268 15.08831566 96373,6917.906,95.438,540.814,538.728,0.0
54066.0,STARLINK-5151,PAYLOAD,2024-07-15 21:16:21,15.08837598,0.0001583,53.2186,165.6125,99.6881,260.429,4.5088e-05,4.3e-06,0.0,0 STARLINK-5151,1 54066U 22136R   24197.88636260  .00000430  00000-0  45088-4 0  9993,2 54066  53.2186 165.6125 0001583  99.6881 260.4290 15.08837598 96475,6917.888,95.438,540.848,538.658,0.0
54066.0,STARLINK-5151,PAYLOAD,2024-07-16 06:48:40,15.0883932,0.0001435,53.2175,163.8261,91.6521,268.4636,2.4466e-05,1.01e-06,0.0,0 STARLINK-5151,1 54066U 22136R   24198.28380355  .00000101  00000-0  24466-4 0  9991,2 54066  53.2175 163.8261 0001435  91.6521 268.4636 15.08839320 96054,6917.882,95.438,540.74,538.755,0.0
54066.0,STARLINK-5151,PAYLOAD,2024-07-17 05:04:05,15.08835568,0.000159,53.2179,159.6623,74.0611,286.0556,1.6864e-05,-2e-07,0.0,0 STARLINK-5151,1 54066U 22136R   24199.21116960 -.00000020  00000-0  16864-4 0  9998,2 54066  53.2179 159.6623 0001590  74.0611 286.0556 15.08835568 96675,6917.894,95.438,540.859,538.659,0.0
54066.0,STARLINK-5151,PAYLOAD,2024-07-17 14:36:23,15.0884582,0.0001437,53.2176,157.8794,88.9589,271.1568,8.6814e-05,1.094e-05,0.0,0 STARLINK-5151,1 54066U 22136R   24199.60860155  .00001094  00000-0  86814-4 0  9996,2 54066  53.2176 157.8794 0001437  88.9589 271.1568 15.08845820 96253,6917.863,95.437,540.722,538.734,0.0
54066.0,STARLINK-5151,PAYLOAD,2024-07-18 04:54:51,15.08839886,0.0001419,53.2173,155.1992,89.5429,270.5725,4.668e-05,4.55e-06,0.0,0 STARLINK-5151,1 54066U 22136R   24200.20476791  .00000455  00000-0  46680-4 0  9991,2 54066  53.2173 155.1992 0001419  89.5429 270.5725 15.08839886 96827,6917.881,95.438,540.727,538.764,0.0
54066.0,STARLINK-5151,PAYLOAD,2024-07-18 06:30:14,15.08843843,0.0001286,53.2168,154.9021,106.553,253.5603,9.1923e-05,1.176e-05,0.0,0 STARLINK-5151,1 54066U 22136R   24200.27100372  .00001176  00000-0  91923-4 0  9998,2 54066  53.2168 154.9021 0001286 106.5530 253.5603 15.08843843 96358,6917.869,95.437,540.623,538.844,0.0
54066.0,STARLINK-5151,PAYLOAD,2024-07-18 14:27:09,15.08853276,0.0001246,53.2167,153.4169,97.4414,262.6719,0.00010812,1.434e-05,0.0,0 STARLINK-5151,1 54066U 22136R   24200.60219660  .00001434  00000-0  10812-3 0  9990,2 54066  53.2167 153.4169 0001246  97.4414 262.6719 15.08853276 96887,6917.84,95.437,540.567,538.843,0.0
54066.0,STARLINK-5151,PAYLOAD,2024-07-19 03:10:15,15.08844252,0.0001444,53.2155,151.0375,121.1427,238.9707,0.00014363,1.999e-05,0.0,0 STARLINK-5151,1 54066U 22136R   24201.13212425  .00001999  00000-0  14363-3 0  9992,2 54066  53.2155 151.0375 0001444 121.1427 238.9707 15.08844252 96962,6917.867,95.437,540.731,538.733,0.0
54066.0,STARLINK-5151,PAYLOAD,2024-07-19 14:17:57,15.08840247,0.0001606,53.2165,148.9511,121.0638,239.0511,7.2953e-05,8.73e-06,0.0,0 STARLINK-5151,1 54066U 22136R   24201.59580544  .00000873  00000-0  72953-4 0  9992,2 54066  53.2165 148.9511 0001606 121.0638 239.0511 15.08840247 96553,6917.88,95.438,540.856,538.634,0.0
54066.0,STARLINK-5151,PAYLOAD,2024-07-20 03:01:02,15.08836787,0.0001496,53.2179,146.5785,94.1756,265.9407,9.4601e-05,1.218e-05,0.0,0 STARLINK-5151,1 54066U 22136R   24202.12572873  .00001218  00000-0  94601-4 0  9996,2 54066  53.2179 146.5785 0001496  94.1756 265.9407 15.08836787 97112,6917.89,95.438,540.79,538.72,0.0
54066.0,STARLINK-5151,PAYLOAD,2024-07-20 06:11:48,15.0884432,0.0001472,53.2175,145.9821,92.9643,267.1518,5.8212e-05,6.39e-06,0.0,0 STARLINK-5151,1 54066U 22136R   24202.25820464  .00000639  00000-0  58212-4 0  9996,2 54066  53.2175 145.9821 0001472  92.9643 267.1518 15.08844320 96654,6917.867,95.437,540.75,538.714,0.0
54066.0,STARLINK-5151,PAYLOAD,2024-07-21 02:51:50,15.08835036,0.0001286,53.2176,142.1126,101.9423,258.1714,9.3728e-05,1.204e-05,0.0,0 STARLINK-5151,1 54066U 22136R   24203.11933076  .00001204  00000-0  93728-4 0  9996,2 54066  53.2176 142.1126 0001286 101.9423 258.1714 15.08835036 97262,6917.896,95.438,540.65,538.871,0.0
54066.0,STARLINK-5151,PAYLOAD,2024-07-21 06:02:36,15.08835718,0.0001285,53.2174,141.5199,107.4138,252.6994,-3.0452e-05,-7.72e-06,0.0,0 STARLINK-5151,1 54066U 22136R   24203.25181299 -.00000772  00000-0 -30452-4 0  9999,2 54066  53.2174 141.5199 0001285 107.4138 252.6994 15.08835718 96801,6917.893,95.438,540.647,538.87,0.0
54066.0,STARLINK-5151,PAYLOAD,2024-07-22 02:42:37,15.08836141,0.0001239,53.2167,137.6567,90.79,269.3234,1.6718e-05,-2.2e-07,0.0,0 STARLINK-5151,1 54066U 22136R   24204.11293523 -.00000022  00000-0  16718-4 0  9995,2 54066  53.2167 137.6567 0001239  90.7900 269.3234 15.08836141 96935,6917.892,95.438,540.614,538.9,0.0
54066.0,STARLINK-5151,PAYLOAD,2024-07-23 00:58:01,15.08841867,0.0001108,53.2167,133.4931,94.1631,265.9488,0.00014536,2.026e-05,0.0,0 STARLINK-5151,1 54066U 22136R   24205.04029003  .00002026  00000-0  14536-3 0  9998,2 54066  53.2167 133.4931 0001108  94.1631 265.9488 15.08841867 97551,6917.875,95.437,540.506,538.973,0.0
54066.0,STARLINK-5151,PAYLOAD,2024-07-23 12:05:41,15.08856299,9.75e-05,53.2169,131.4135,81.363,278.7473,0.00025978,3.851e-05,0.0,0 STARLINK-5151,1 54066U 22136R   24205.50395758  .00003851  00000-0  25978-3 0  9991,2 54066  53.2169 131.4135 0000975  81.3630 278.7473 15.08856299 97624,6917.831,95.437,540.37,539.021,0.0
54066.0,STARLINK-5151,PAYLOAD,2024-07-24 03:59:35,15.08825265,0.0001254,53.2179,128.4397,99.8239,260.2895,-8.2877e-06,-4.2e-06,0.0,0 STARLINK-5151,1 54066U 22136R   24206.16638840 -.00000420  00000-0 -82877-5 0  9990,2 54066  53.2179 128.4397 0001254  99.8239 260.2895 15.08825265 97725,6917.925,95.438,540.658,538.923,0.0
54066.0,STARLINK-5151,PAYLOAD,2024-07-25 03:50:23,15.08827063,9.27e-05,53.2165,123.9768,100.4816,259.6281,-0.00013158,-2.38e-05,0.0,0 STARLINK-5151,1 54066U 22136R   24207.15999915 -.00002380  00000-0 -13158-3 0  9994,2 54066  53.2165 123.9768 0000927 100.4816 259.6281 15.08827063 97390,6917.92,95.438,540.426,539.144,0.0
54066.0,STARLINK-5151,PAYLOAD,2024-07-26 03:41:08,15.08852586,0.0001491,53.2179,119.5122,110.2467,249.8686,0.00034125,5.149e-05,0.0,0 STARLINK-5151,1 54066U 22136R   24208.15357057  .00005149  00000-0  34125-3 0  9991,2 54066  53.2179 119.5122 0001491 110.2467 249.8686 15.08852586 98027,6917.842,95.437,540.738,538.675,0.0
54066.0,STARLINK-5151,PAYLOAD,2024-07-26 11:38:02,15.08868363,0.0001165,53.2173,118.0298,94.4294,265.6831,0.00046462,7.12e-05,0.0,0 STARLINK-5151,1 54066U 22136R   24208.48475529  .00007120  00000-0  46462-3 0  9990,2 54066  53.2173 118.0298 0001165  94.4294 265.6831 15.08868363 98071,6917.794,95.436,540.465,538.853,0.0
54066.0,STARLINK-5151,PAYLOAD,2024-07-27 22:36:33,15.08850732,0.0001323,53.2171,111.4843,114.3829,245.7301,-9.9214e-05,-1.867e-05,0.0,0 STARLINK-5151,1 54066U 22136R   24209.94205478 -.00001867  00000-0 -99214-4 0  9994,2 54066  53.2171 111.4843 0001323 114.3829 245.7301 15.08850732 97817,6917.848,95.437,540.628,538.797,0.0
54066.0,STARLINK-5151,PAYLOAD,2024-07-28 04:58:06,15.0882833,0.0001238,53.2167,110.2999,96.0626,264.0508,7.3129e-05,8.76e-06,0.0,0 STARLINK-5151,1 54066U 22136R   24210.20702507  .00000876  00000-0  73129-4 0  9994,2 54066  53.2167 110.2999 0001238  96.0626 264.0508 15.08828330 98337,6917.916,95.438,540.637,538.925,0.0
54066.0,STARLINK-5151,PAYLOAD,2024-07-28 20:51:57,15.08858552,0.0001188,53.217,107.3292,66.9029,293.2088,-0.00039013,-6.495e-05,0.0,0 STARLINK-5151,1 54066U 22136R   24210.86941139 -.00006495  00000-0 -39013-3 0  9990,2 54066  53.2170 107.3292 0001188  66.9029 293.2088 15.08858552 98438,6917.824,95.436,540.511,538.867,0.0
54066.0,STARLINK-5151,PAYLOAD,2024-07-28 22:27:21,15.08810358,0.0001055,53.2169,107.0319,81.3707,278.7405,0.00036995,5.6e-05,0.0,0 STARLINK-5151,1 54066U 22136R   24210.93567080  .00005600  00000-0  36995-3 0  9998,2 54066  53.2169 107.0319 0001055  81.3707 278.7405 15.08810358 97960,6917.971,95.439,540.566,539.106,0.0
54066.0,STARLINK-5151,PAYLOAD,2024-07-29 00:02:42,15.08867421,0.0001112,53.217,106.7342,62.7018,297.4087,-0.0004745,-7.837e-05,0.0,0 STARLINK-5151,1 54066U 22136R   24211.00188468 -.00007837  00000-0 -47450-3 0  9990,2 54066  53.2170 106.7342 0001112  62.7018 297.4087 15.08867421 98458,6917.797,95.436,540.431,538.892,0.0
54066.0,STARLINK-5151,PAYLOAD,2024-07-29 09:35:02,15.08840755,0.0001274,53.2175,104.9491,87.5015,272.6123,0.00023327,3.427e-05,0.0,0 STARLINK-5151,1 54066U 22136R   24211.39933197  .00003427  00000-0  23327-3 0  9995,2 54066  53.2175 104.9491 0001274  87.5015 272.6123 15.08840755 98513,6917.878,95.438,540.624,538.862,0.0
54066.0,STARLINK-5151,PAYLOAD,2024-07-29 20:42:45,15.08832269,0.000147,53.2175,102.8706,107.5554,252.5599,0.00013688,1.891e-05,0.0,0 STARLINK-5151,1 54066U 22136R   24211.86302319  .00001891  00000-0  13688-3 0  9995,2 54066  53.2175 102.8706 0001470 107.5554 252.5599 15.08832269 98580,6917.904,95.438,540.786,538.752,0.0
54066.0,STARLINK-5151,PAYLOAD,2024-07-29 22:18:08,15.08832113,0.0001626,53.2192,102.5752,111.2989,248.8176,0.00014987,2.097e-05,0.0,0 STARLINK-5151,1 54066U 22136R   24211.92926336  .00002097  00000-0  14987-3 0  9995,2 54066  53.2192 102.5752 0001626 111.2989 248.8176 15.08832113 98110,6917.904,95.438,540.894,538.645,0.0
